0 CZ-2D DEB
1 36292U 08056H   19125.81908778 +.00000009 +00000-0 +30544-4 0  9996
2 36292 098.5509 332.6001 0161809 311.5657 047.1730 14.00473665534918
0 CZ-2D DEB
1 36292U 08056H   19126.81929391  .00000005  00000-0  28045-4 0  9990
2 36292  98.5507 333.5365 0161757 308.7376  49.9425 14.00473797535746
0 COSMOS 789 DEB
1 36299U 76005C   19126.47999304  .00000250  00000-0  24028-3 0  9997
2 36299  82.9706 308.0868 0030119 215.1480 173.8763 13.76159914494335
0 COSMOS 789 DEB
1 36299U 76005C   19125.26335712 +.00000255 +00000-0 +24564-3 0  9990
2 36299 082.9706 308.9864 0030014 218.6840 266.3164 13.76159308493959
0 COSMOS 839 DEB
1 36300U 76067BZ  19125.91356249 -.00000216 +00000-0 -56033-3 0  9996
2 36300 065.6813 357.9035 0693394 260.2889 204.4632 12.34914473439874
0 COSMOS 839 DEB
1 36300U 76067BZ  19126.88384709 -.00000239  00000-0 -64003-3 0  9996
2 36300  65.6812 356.0084 0693336 259.9368 198.0469 12.34913874440221
0 ISIS 1 DEB
1 36301U 69009D   19125.76948206 +.00001868 +00000-0 +12356-2 0  9999
2 36301 088.4245 052.7601 1515614 167.9982 231.4611 11.69320462405586
0 METEOR 1-22 DEB
1 36302U 75087C   19125.92255559 +.00000120 +00000-0 +59483-4 0  9997
2 36302 081.2451 080.7206 0104713 252.4558 170.6690 14.08987602524811
0 METEOR 1-11 DEB
1 36305U 72022D   19125.83601634 +.00001774 +00000-0 +54675-3 0  9998
2 36305 081.1975 169.1818 0016207 097.8809 262.4219 14.41043334560937
0 METEOR 2-6 DEB
1 36308U 80073L   19126.42250018  .00001951  00000-0  65155-3 0  9990
2 36308  81.2105  16.0477 0035950  40.5730 319.8125 14.36816404583074
0 METEOR 2-8 DEB
1 36320U 82025E   19126.51534501  .00000339  00000-0  16721-3 0  9999
2 36320  82.5131 189.4533 0016502 106.4591 253.8401 14.14905594827236
0 METEOR 2-8 DEB
1 36321U 82025F   19125.58152976 +.00000197 +00000-0 +10227-3 0  9995
2 36321 082.5346 221.0863 0022102 213.9795 145.9966 14.10063119353120
0 METEOR 2-8 DEB
1 36327U 82025M   19125.07169499 +.00001016 +00000-0 +63244-3 0  9991
2 36327 082.5157 258.8603 0002028 050.9902 309.1449 14.04078187771421
0 METEOR 2-8 DEB
1 36327U 82025M   19126.06936169  .00001022  00000-0  63651-3 0  9996
2 36327  82.5133 258.0378 0001936  51.4295 308.7049 14.04080255771569
0 METEOR 2-8 DEB
1 36329U 82025P   19125.88490332  .00001544  00000-0  78522-3 0  9996
2 36329  82.5086 182.3406 0021471 115.0260 245.3149 14.15217562710301
0 METEOR 2-8 DEB
1 36329U 82025P   19125.88490332 +.00001544 +00000-0 +78522-3 0  9996
2 36329 082.5086 182.3406 0021471 115.0260 245.3149 14.15217562255293
0 METEOR 2-8 DEB
1 36335U 82025V   19125.93864920 +.00000490 +00000-0 +25696-3 0  9990
2 36335 082.5110 199.9455 0023346 122.2868 238.0573 14.12270337741895
0 METEOR 2-8 DEB
1 36335U 82025V   19125.93864920  .00000490  00000-0  25696-3 0  9990
2 36335  82.5110 199.9455 0023346 122.2868 238.0573 14.12270337743426
0 METEOR 2-8 DEB
1 36337U 82025X   19125.07946891 +.00001297 +00000-0 +79935-3 0  9996
2 36337 082.5302 253.9382 0010233 289.8216 070.1852 14.04786923258889
0 METEOR 2-8 DEB
1 36349U 82025AK  19126.48278128 -.00000195  00000-0 -10891-3 0  9990
2 36349  82.5195 185.8635 0017537  85.2338 275.0841 14.14987977841192
0 METEOR 2-8 DEB
1 36350U 82025AL  19126.55360340  .00000004  00000-0 -63370-5 0  9998
2 36350  82.5248 200.5679 0022752 150.0631 210.1852 14.13222837850534
0 METEOR 2-8 DEB
1 36355U 82025AR  19126.52384068  .00000274  00000-0  13937-3 0  9993
2 36355  82.5252 202.9496 0025256 182.0555 178.0521 14.12454248843392
0 METEOR 2-8 DEB
1 36356U 82025AS  19124.95497173 +.00000106 +00000-0 +50106-4 0  9995
2 36356 082.5232 208.5511 0015034 098.1352 262.1529 14.10926862572965
0 METEOR 2-8 DEB
1 36356U 82025AS  19124.95497173  .00000106  00000-0  50106-4 0  9995
2 36356  82.5232 208.5511 0015034  98.1352 262.1529 14.10926862572965
0 RADUGA 1M-2
1 36358U 10002A   19126.47199977 -.00000179  00000-0  00000+0 0  9997
2 36358   0.0257 253.1646 0002527 173.3574  52.4332  1.00271299 33954
0 RADUGA 1M-2
1 36358U 10002A   19125.89762807 -.00000179 +00000-0 +00000-0 0  9991
2 36358 000.0268 253.8238 0002537 172.7197 205.0727 01.00271419024032
0 BREEZE-M R/B
1 36359U 10002B   19125.78590955 -.00000182 +00000-0 +00000-0 0  9997
2 36359 006.5028 055.4197 0214536 190.7981 176.6342 01.04042775035182
0 BREEZE-M DEB (TANK)
1 36360U 10002C   19125.51369846 +.00000071 +00000-0 -10964-3 0  9993
2 36360 045.5217 261.0861 7125181 242.9839 029.9479 02.34898769078876
0 YAOGAN 1 DEB
1 36365U 06015J   19125.93142055 +.00000283 +00000-0 +37649-4 0  9998
2 36365 098.0263 131.6319 0022891 154.1364 206.1001 14.87292326499997
0 YAOGAN 1 DEB
1 36365U 06015J   19126.87330540  .00000311  00000-0  40741-4 0  9999
2 36365  98.0263 132.5841 0023010 151.2741 208.9747 14.87293412500142
0 COSMOS 2251 DEB
1 36372U 93036AYZ 19126.02214873  .00001267  00000-0  37968-3 0  9990
2 36372  74.0139  25.4685 0043315 301.7930  57.9011 14.43321474506463
0 COSMOS 2251 DEB
1 36378U 93036AZF 19126.48709879  .00000719  00000-0  81476-4 0  9996
2 36378  74.0590 304.0414 0083669 269.4638  89.6954 14.86151760516664
0 COSMOS 2251 DEB
1 36378U 93036AZF 19125.81393610 +.00000702 +00000-0 +79650-4 0  9997
2 36378 074.0590 305.3786 0083673 270.9741 088.1852 14.86150492515871
0 COSMOS 2251 DEB
1 36380U 93036AZH 19126.56518429  .00032775  00000-0  74263-3 0  9999
2 36380  73.9613 212.0631 0008128 286.2601  73.7714 15.42916441522825
0 COSMOS 2251 DEB
1 36384U 93036AZM 19126.45912098  .00000988  00000-0  25420-3 0  9993
2 36384  74.0300 291.8387 0014052 225.0435 134.9587 14.51445918519544
0 COSMOS 2251 DEB
1 36385U 93036AZN 19126.06352121  .00000527  00000-0  13339-3 0  9991
2 36385  73.9883   7.2278 0222109  26.5083 334.7227 14.39770873505402
0 COSMOS 2251 DEB
1 36385U 93036AZN 19125.09076777 +.00000578 +00000-0 +14541-3 0  9995
2 36385 073.9885 009.0316 0222069 028.5314 332.7783 14.39769893501738
0 COSMOS 2251 DEB
1 36387U 93036AZQ 19125.11625207 +.00001256 +00000-0 +40069-3 0  9996
2 36387 074.0019 056.0626 0056248 359.9783 063.6393 14.39903931309569
0 COSMOS 2251 DEB
1 36387U 93036AZQ 19126.15835972  .00001231  00000-0  39267-3 0  9994
2 36387  74.0020  54.1332 0056272 357.9030  65.4715 14.39906552500062
0 SDO
1 36395U 10005A   19126.50654519 -.00000032  00000-0  00000+0 0  9991
2 36395  29.6693 128.2808 0001089   8.8187 167.5213  1.00274211 33977
0 INTELSAT 16
1 36397U 10006A   19126.43980972 -.00000240  00000-0  00000+0 0  9992
2 36397   0.0056 314.8985 0001842  81.8058 269.4398  1.00270415 33674
0 INTELSAT 16
1 36397U 10006A   19125.86548792 -.00000240 +00000-0 +00000-0 0  9999
2 36397 000.0036 330.9890 0001817 066.2390 061.5948 01.00270851033805
0 INTELSAT 16
1 36397U 10006A   19126.15261862 -.00000240  00000-0  00000+0 0  9991
2 36397   0.0029 276.1312 0001807 120.5534 165.7875  1.00270697 33679
0 BREEZE-M R/B
1 36398U 10006B   19124.33643197 -.00000133 +00000-0 +00000-0 0  9997
2 36398 007.7355 061.3616 0481454 012.5899 348.4388 00.86942732029270
0 COSMOS 2459 (GLONASS)
1 36400U 10007A   19125.92300100 -.00000043 +00000-0 +10000-3 0  9996
2 36400 065.7416 041.5737 0028029 350.0241 042.9016 02.13102203071438
0 COSMOS 2459 (GLONASS)
1 36400U 10007A   19126.52487589 -.00000041  00000-0  10000-3 0  9998
2 36400  65.7419  41.5536 0028006 350.0692 144.5929  2.13102220 71445
0 COSMOS 2461 (GLONASS)
1 36401U 10007B   19126.68992650 -.00000041  00000-0  10000-3 0  9996
2 36401  65.7343  41.5204 0007366  49.8962 121.9189  2.13102217 71446
0 COSMOS 2461 (GLONASS)
1 36401U 10007B   19125.92824304 -.00000043 +00000-0 +10000-3 0  9994
2 36401 065.7340 041.5458 0007336 049.8451 257.6356 02.13102216071424
0 COSMOS 2460 (GLONASS)
1 36402U 10007C   19125.68866188 -.00000044 +00000-0 +10000-3 0  9995
2 36402 065.7236 041.5179 0002043 340.3172 183.3496 02.13101474071423
0 COSMOS 2460 (GLONASS)
1 36402U 10007C   19126.33261153 -.00000042  00000-0  10000-3 0  9997
2 36402  65.7238  41.4964 0002012 339.0318 318.6479  2.13101485 71436
0 SL-12 R/B(2)
1 36403U 10007D   19125.79472704 -.00000044 +00000-0 +00000-0 0  9991
2 36403 065.7313 041.2977 0017383 194.3987 076.8022 02.13313993071485
0 SL-12 R/B(2)
1 36403U 10007D   19126.19240417 -.00000042  00000-0  00000+0 0  9997
2 36403  65.7315  41.2844 0017382 194.3928  22.1935  2.13313960 71485
0 SL-12 R/B(AUX MOTOR)
1 36406U 10007G   19125.92539039 -.00000058 +00000-0 -46633-3 0  9995
2 36406 064.9540 069.2815 5545826 050.4681 346.6869 04.22621988073340
0 SL-12 R/B(AUX MOTOR)
1 36407U 10007H   19125.76999313 -.00000094 +00000-0 +15105-4 0  9993
2 36407 065.0748 051.1308 5734405 029.3582 353.2182 04.24393717141894
0 SL-12 R/B(AUX MOTOR)
1 36407U 10007H   19126.71252876 -.00000060  00000-0  43682-4 0  9999
2 36407  65.0746  50.7874 5734408  29.3132 353.2384  4.24393722141934
0 GOES 15
1 36411U 10008A   19126.50122378  .00000060  00000-0  00000+0 0  9996
2 36411   0.1206  99.7096 0001275 332.4255 204.1688  1.00265866 33600
0 GOES 15
1 36411U 10008A   19125.81021628 +.00000060 +00000-0 +00000-0 0  9996
2 36411 000.1190 099.6294 0001273 333.3848 313.8611 01.00265748033600
0 YAOGAN 9C
1 36415U 10009C   19125.91770430 -.00000045 +00000-0 +57961-4 0  9990
2 36415 063.3948 222.9524 0310093 006.4908 353.9995 13.45189938450422
0 YAOGAN 9C
1 36415U 10009C   19126.58675489 -.00000173  00000-0 -10463-3 0  9990
2 36415  63.3949 221.2314 0310095   6.4916 353.9986 13.45189396450511
0 CZ-4C R/B
1 36416U 10009D   19126.54370846 -.00000070  00000-0  17932-4 0  9990
2 36416  63.4308 216.9425 0454806 355.2997   4.3837 13.69548088458646
0 CZ-4C R/B
1 36416U 10009D   19125.66750635 -.00000075 +00000-0 +15468-4 0  9997
2 36416 063.4308 219.2955 0454716 355.3008 004.3828 13.69548054458366
